SITRO-AIS-22
1 61740U 24199F   26117.19486458  .00002499  00000-0  22926-3 0  9993
2 61740  97.3294 318.5126 0011262 230.2931 129.7299 14.95662162124291
SITRO-AIS-24
1 61741U 24199G   26117.18843076  .00003479  00000-0  31532-3 0  9998
2 61741  97.3298 318.5295 0011010 230.9895 129.0347 14.95899654124262
SITRO-AIS-23
1 61742U 24199H   26117.18316919  .00003298  00000-0  30081-3 0  9997
2 61742  97.3295 318.5288 0010967 230.3118 129.7138 14.95690130124144
SITRO-AIS-13
1 61743U 24199J   26117.15464940  .00003143  00000-0  27339-3 0  9994
2 61743  97.3267 319.8467 0005320 231.8713 128.2031 14.97608195124352
CSTP-2.11
1 61744U 24199K   26117.19118289  .00036467  00000-0  66847-3 0  9993
2 61744  97.3065 351.7203 0010365 100.7618 259.4801 15.49156491126466
POLYTECH UNIVERSE-5 (RS70S)
1 61745U 24199L   26117.17370668  .00057768  00000-0  80775-3 0  9996
2 61745  97.3045 353.5412 0008402 100.3041 259.9162 15.56614437129737
COLIBRI-S (RS67S)
1 61746U 24199M   26117.14352804  .00026528  00000-0  55093-3 0  9991
2 61746  97.3077 350.5953 0010878 104.7675 255.4781 15.45595969129522
POLYTECH UNIVERSE-4 (RS71S)
1 61747U 24199N   26117.19662593  .00023508  00000-0  51967-3 0  9997
2 61747  97.3083 350.0770 0011332 103.8949 256.3561 15.43768586129499
SITRO-AIS-44
1 61748U 24199P   26117.19976572  .00080995  00000-0  94689-3 0  9994
2 61748  97.2984 354.6088 0007922 101.9935 258.2211 15.61287442129811
VIZARD-ION (RS68S)
1 61749U 24199Q   26117.18403845  .00041023  00000-0  68697-3 0  9991
2 61749  97.3077 352.5039 0009104 101.1675 259.0602 15.51710120129654
MTUSI-1
1 61750U 24199R   26117.18777625  .00043301  00000-0  72553-3 0  9990
2 61750  97.3046 351.9760 0009456 110.6165 249.6103 15.51679361129635
VLADIVOSTOK-1
1 61751U 24199S   26117.15752338  .00011581  00000-0  33272-3 0  9992
2 61751  97.3078 346.9991 0011367 124.9629 235.2684 15.35921350129307
SITRO-AIS-14
1 61752U 24199T   26117.13867897  .00002492  00000-0  21885-3 0  9996
2 61752  97.3278 319.7252 0005050 233.1954 126.8806 14.97410341127482
HORS-3 (RS81S)
1 61753U 24199U   26117.19309001  .00041098  00000-0  69166-3 0  9990
2 61753  97.3058 352.1335 0009283 107.4164 252.8104 15.51568065129649
HORS-4 (RS82S)
1 61754U 24199V   26117.16024109  .00048900  00000-0  72120-3 0  9994
2 61754  97.3015 353.0149 0008513 103.9364 256.2838 15.55200700129706
SITRO-AIS-43
1 61755U 24199W   26117.15937008  .00078856  00000-0  90959-3 0  9998
2 61755  97.3001 354.6830 0007190  99.4658 260.7413 15.61651590129816
SITRO-AIS-42
1 61756U 24199X   26117.19781561  .00080552  00000-0  92022-3 0  9993
2 61756  97.2996 354.7833 0007740 102.5046 257.7078 15.61891558129825
HORIZON (RS59S)
1 61757U 24199Y   26117.09117722  .00485563  92906-4  15186-2 0  9991
2 61757  97.2921 358.6847 0005381 120.9100 239.2703 15.91454653130068
SITRO-AIS-20
1 61758U 24199Z   26117.19605493  .00002707  00000-0  23564-3 0  9995
2 61758  97.3284 319.9274 0004442 232.5778 127.5041 14.97687035127500
SITRO-AIS-19
1 61759U 24199AA  26117.19863198  .00002548  00000-0  22223-3 0  9998
2 61759  97.3281 319.9270 0004443 235.6104 124.4700 14.97661189127502
SITRO-AIS-41
1 61760U 24199AB  26117.14147948  .00078788  00000-0  94044-3 0  9992
2 61760  97.3023 354.4564 0007239  99.7974 260.4101 15.60758282129799
NORBY-3
1 61761U 24199AC  26117.11253757  .00039355  00000-0  62467-3 0  9997
2 61761  97.3011 352.6225 0008059 100.9019 259.3142 15.53225260129673
ARCTICSAT-1 (RS74S)
1 61762U 24199AD  26114.92720727  .00070579  00000-0  42412-3 0  9991
2 61762  97.2986 355.3724 0006854 100.0740 260.1300 15.77517111129650
SIT-HSE
1 61763U 24199AE  26117.14369435  .00028523  00000-0  51517-3 0  9992
2 61763  97.3053 352.6750 0006936 118.3816 241.8135 15.49661676129672
SIT-2086
1 61764U 24199AF  26117.17546882  .00029150  00000-0  51984-3 0  9994
2 61764  97.3039 352.7572 0008594  95.3819 264.8413 15.50005697126521
HOD-HOD
1 61768U 24199AK  26117.16774266  .00026254  00000-0  51133-3 0  9994
2 61768  97.3049 351.4446 0007711 111.4356 248.7717 15.47502615126445
KOSAR
1 61769U 24199AL  26117.15112824  .00037708  00000-0  65008-3 0  9992
2 61769  97.3032 352.3389 0007084 107.2382 252.9645 15.50927455126500
SITRO-AIS-48
1 61771U 24199AN  26117.15808506  .00049168  00000-0  76410-3 0  9996
2 61771  97.3018 351.9847 0010476 114.8685 245.3659 15.53738189126496
HYPERVIEW-1G (RS66S)
1 61772U 24199AP  26117.19986053  .00106542  00000-0  10627-2 0  9992
2 61772  97.2986 354.7675 0009346 104.1804 256.0495 15.65260118126671
SITRO-AIS-47
1 61773U 24199AQ  26117.15443346  .00051393  00000-0  78286-3 0  9991
2 61773  97.3002 352.1463 0009673 112.2821 247.9459 15.54289989126507
SITRO-AIS-46
1 61774U 24199AR  26117.19434110  .00059738  00000-0  86706-3 0  9992
2 61774  97.2977 352.5038 0009587 115.0104 245.2147 15.55579828126532
CSTP-2.2
1 61775U 24199AS  26117.19757497  .00020619  00000-0  46974-3 0  9998
2 61775  97.3069 349.3495 0017217 103.3943 256.9225 15.42806997126304
SITRO-AIS-40
1 61776U 24199AT  26117.18066510  .00059094  00000-0  85089-3 0  9996
2 61776  97.2985 352.5299 0009306 113.7673 246.4559 15.55803043129685
CSTP-2.1
1 61777U 24199AU  26117.19683779  .00022008  00000-0  48538-3 0  9993
2 61777  97.3071 349.4960 0017039 103.2568 257.0582 15.43763082126318
SITRO-AIS-39
1 61778U 24199AV  26117.20748463  .00049468  00000-0  77314-3 0  9991
2 61778  97.2987 351.9076 0009741 112.3151 247.9136 15.53588260126496
ALTAIR (RS65S)
1 61779U 24199AW  26117.18484484  .00013575  00000-0  38766-3 0  9997
2 61779  97.3108 346.8900 0014635 125.3118 234.9497 15.36027506129285
SITRO-AIS-37
1 61780U 24199AX  26117.17930233  .00052868  00000-0  80048-3 0  9994
2 61780  97.3020 352.1660 0010272 113.5229 246.7105 15.54442867126508
ASRTU-1 (RS64S/BJ2CR/AO-123)
1 61781U 24199AY  26117.19684221  .00009863  00000-0  29246-3 0  9990
2 61781  97.3080 346.3364 0015544 127.8287 232.4366 15.34912723126108
TUSUR GO (RS78S)
1 61782U 24199AZ  26117.15878662  .00770385  26895-3  17032-2 0  9997
2 61782  97.2876 357.9077 0005558 141.1370 219.0308 15.98019355126887
SAMSAT-IONOSPHERE (RS75S)
1 61784U 24199BB  26117.17067388  .00048812  00000-0  76798-3 0  9991
2 61784  97.3036 352.0059 0011537 108.4869 251.7639 15.53384452129637
RTU MIREA-1 (RS51S)
1 61785U 24199BC  26117.16348512  .00058875  00000-0  84331-3 0  9994
2 61785  97.3026 352.6062 0011560 106.4477 253.8050 15.55918672126520
SITRO-AIS-38
1 61786U 24199BD  26117.17308788  .00021173  00000-0  42767-3 0  9995
2 61786  97.3028 350.9579 0011567 117.5575 242.6851 15.46444396126427
2024-199BE (? SWSU-60)
1 61787U 24199BE  26117.17751353  .00012328  00000-0  35746-3 0  9997
2 61787  97.3089 346.5550 0015178 126.0462 234.2190 15.35562989129262
SITRO-AIS-45
1 61788U 24199BF  26117.16879779  .00050296  00000-0  77930-3 0  9997
2 61788  97.2984 351.9301 0009786 112.4109 247.8182 15.53823893126470
SITRO-AIS-17
1 61789U 24199BG  26117.18781868  .00003586  00000-0  31063-3 0  9998
2 61789  97.3290 319.9662 0004271 236.5525 123.5290 14.97695713124406
SITRO-AIS-18
1 61790U 24199BH  26117.19966152  .00002494  00000-0  21766-3 0  9998
2 61790  97.3281 319.9295 0004466 238.3585 121.7202 14.97649256124406
INNOCUBE (TUBSAT-31)
1 62616U 25009H   26117.20653045  .00009579  00000-0  37757-3 0  9991
2 62616  97.3909 197.7603 0007056 142.5158 217.6573 15.25768030 71047
OTP-2
1 63235U 25052AB  26117.19726517  .00008877  00000-0  37699-3 0  9995
2 63235  97.3929  10.3985 0006131   0.0233   0.1003 15.23285006 62100
HADES-ICM (SO-125)
1 63492U 25052BN  26116.68710460  .00399074  00000-0  23247-2 0  9998
2 63492  97.3831  19.5190 0003502 134.0397 226.1158 15.77342185 62656
IONOSFERA-M 03
1 64876U 25155A   26117.21382376  .00000069  00000-0  51228-4 0  9995
2 64876  98.5991  80.4133 0001943  43.6355 316.4976 14.21477326 39168
IONOSFERA-M 04
1 64877U 25155B   26117.17834995  .00000062  00000-0  48115-4 0  9994
2 64877  98.5994  80.2967 0001379  55.4733 304.6575 14.21479256 39156
INNOSAT16 (RS92S7)
1 64878U 25155C   26117.15532022  .00007687  00000-0  31158-3 0  9997
2 64878  97.4526  84.4805 0010955  16.7263 343.4334 15.24875360 72893
GEOSCAN-6 (RS92S6)
1 64879U 25155D   26117.15654522  .00012154  00000-0  43178-3 0  9998
2 64879  97.4520  85.5619 0008077  15.0222 345.1256 15.29140419 72967
GEOSCAN 1 (RS92S1)
1 64880U 25155E   26117.17746707  .00015315  00000-0  53464-3 0  9990
2 64880  97.4518  85.6898 0007999  15.4872 344.6612 15.29656562 72975
239ALFEROV (RS61S)
1 64881U 25155F   26117.14917655  .00017115  00000-0  56377-3 0  9996
2 64881  97.4520  86.0638 0007568  16.8133 343.3357 15.31519876 72996
CSTP-4.3
1 64882U 25155G   26117.18298994  .00012103  00000-0  43679-3 0  9992
2 64882  97.4545  85.5903 0007604  16.2980 343.8503 15.28627866 72968
CSTP-4.2
1 64883U 25155H   26117.18315236  .00012374  00000-0  44665-3 0  9998
2 64883  97.4537  85.5716 0007412  15.0829 345.0630 15.28616401 72966
CSTP-4.4
1 64884U 25155J   26117.18257973  .00010016  00000-0  36222-3 0  9993
2 64884  97.4531  85.5679 0007319  11.4011 348.7393 15.28613965 72966
ASTROLINE-N3
1 64886U 25155L   26117.18205703  .00040618  00000-0  10624-2 0  9997
2 64886  97.4440  87.1835 0006397  12.8048 347.3358 15.38615036 73081
ASTROLINE-N2
1 64888U 25155N   26117.17229764  .00038725  00000-0  10105-2 0  9991
2 64888  97.4447  87.2220 0006082  11.3106 348.8275 15.38697998 73080
GEOSCAN 2 (RS92S2)
1 64890U 25155Q   26117.18039650  .00014703  00000-0  50903-3 0  9999
2 64890  97.4517  85.8244 0006841   4.0496 356.0798 15.29945575 72981
GEOSCAN-5 (RS92S5)
1 64891U 25155R   26117.14886147  .00017166  00000-0  55980-3 0  9993
2 64891  97.4512  86.1813 0006776  25.7761 334.3817 15.31846601 73003
GEOSCAN-4 (RS92S4)
1 64892U 25155S   26117.13765661  .00017655  00000-0  57341-3 0  9996
2 64892  97.4516  86.2051 0006803  26.0236 334.1347 15.31972289 73003
